0 COSMOS 886 DEB
1 09650U 76126G   13281.63466678  .00003007  00000-0  72983-3 0  3214
2 09650 065.8165 282.4593 0927187 332.3738 114.9719 13.18235369741093
0 COSMOS 886 DEB
1 09650U 76126G   13284.05435286  .00003847  00000-0  92595-3 0  3228
2 09650 065.8163 276.9439 0927215 331.2907 078.0205 13.18253057741416
0 COSMOS 886 DEB
1 09650U 76126G   13286.48748968  .00003582  00000-0  86327-3 0  3234
2 09650 065.8153 271.3961 0927239 330.2068 105.0470 13.18268728741738
0 COSMOS 886 DEB
1 09650U 76126G   13289.52266448  .00005038  00000-0  12021-2 0  3248
2 09650 065.8157 264.4748 0927368 328.8539 109.4004 13.18293517742137
0 COSMOS 886 DEB
1 09650U 76126G   13290.49130988  .00003863  00000-0  90226-3 0  3265
2 09650 065.8156 262.2682 0927202 328.4191 026.4646 13.18302599742261
0 COSMOS 886 DEB
1 09650U 76126G   13292.17890308  .00004836  00000-0  11537-2 0  3258
2 09650 065.8169 258.4174 0927413 327.6678 115.6396 13.18318414742483
0 COSMOS 886 DEB
1 09650U 76126G   13294.37602209  .00005644  00000-0  13407-2 0  3260
2 09650 065.8176 253.4082 0927492 326.6880 103.1259 13.18338717742775
